{"type": "FeatureCollection", "features": [ {"type": "Feature", "properties": {"norad_id": 36278, "name": "FENGYUN 1C DEB", "group": "fengyun-1c-debris", "lat": -80.3897998037999, "lon": 25.817901745167095, "alt_km": 798.4321909797391, "timestamp": "2025-12-24T20:42:21.315144+00:00", "meta": {"OBJECT_NAME": "FENGYUN 1C DEB", "OBJECT_ID": "1999-025DXF", "EPOCH": "2025-12-18T00:48:19.487232", "MEAN_MOTION": 14.17390163, "ECCENTRICITY": 0.00606793, "INCLINATION": 99.1246, "RA_OF_ASC_NODE": 270.466, "ARG_OF_PERICENTER": 275.7743, "MEAN_ANOMALY": 83.6515, "EPHEMERIS_TYPE": 0, "CLASSIFICATION_TYPE": "U", "NORAD_CAT_ID": 36278, "ELEMENT_SET_NO": 999, "REV_AT_EPOCH": 93551, "BSTAR": 0.00036894737, "MEAN_MOTION_DOT": 7.13e-06, "MEAN_MOTION_DDOT": 0}, "tle": {"line1": "1 36278U 99025DXF 25352.03355888  .00000713  00000+0  36895-3 0  9992", "line2": "2 36278  99.1246 270.4660 0060679 275.7743  83.6515 14.17390163935513"}}, "geometry": {"type": "Point", "coordinates": [25.817901745167095, -80.3897998037999]}}, {"type": "Feature", "properties": {"norad_id": 36279, "name": "FENGYUN 1C DEB", "group": "fengyun-1c-debris", "lat": 5.018900550269214, "lon": 157.13127995862328, "alt_km": 885.8473268515627, "timestamp": "2025-12-24T20:42:21.315154+00:00", "meta": {"OBJECT_NAME": "FENGYUN 1C DEB", "OBJECT_ID": "1999-025DXG", "EPOCH": "2025-12-24T04:36:30.849408", "MEAN_MOTION": 14.1473428, "ECCENTRICITY": 0.00624156, "INCLINATION": 98.5623, "RA_OF_ASC_NODE": 335.7298, "ARG_OF_PERICENTER": 22.9202, "MEAN_ANOMALY": 337.4736, "EPHEMERIS_TYPE": 0, "CLASSIFICATION_TYPE": "U", "NORAD_CAT_ID": 36279, "ELEMENT_SET_NO": 999, "REV_AT_EPOCH": 89201, "BSTAR": 0.00014307987, "MEAN_MOTION_DOT": 2.39e-06, "MEAN_MOTION_DDOT": 0}, "tle": {"line1": "1 36279U 99025DXG 25358.19202372  .00000239  00000+0  14308-3 0  9993", "line2": "2 36279  98.5623 335.7298 0062415  22.9202 337.4736 14.14734280892011"}}, "geometry": {"type": "Point", "coordinates": [157.13127995862328, 5.018900550269214]}}, {"type": "Feature", "properties": {"norad_id": 36280, "name": "FENGYUN 1C DEB", "group": "fengyun-1c-debris", "lat": -4.400816848548061, "lon": 28.2205801804694, "alt_km": 826.5509612291044, "timestamp": "2025-12-24T20:42:21.315164+00:00", "meta": {"OBJECT_NAME": "FENGYUN 1C DEB", "OBJECT_ID": "1999-025DXH", "EPOCH": "2025-12-22T20:10:47.541792", "MEAN_MOTION": 14.09768889, "ECCENTRICITY": 0.00627203, "INCLINATION": 98.766, "RA_OF_ASC_NODE": 25.5711, "ARG_OF_PERICENTER": 36.9114, "MEAN_ANOMALY": 143.2886, "EPHEMERIS_TYPE": 0, "CLASSIFICATION_TYPE": "U", "NORAD_CAT_ID": 36280, "ELEMENT_SET_NO": 999, "REV_AT_EPOCH": 86496, "BSTAR": 0.00082242587, "MEAN_MOTION_DOT": 1.428e-05, "MEAN_MOTION_DDOT": 0}, "tle": {"line1": "1 36280U 99025DXH 25356.84082803  .00001428  00000+0  82243-3 0  9994", "line2": "2 36280  98.7660  25.5711 0062720  36.9114 143.2886 14.09768889864964"}}, "geometry": {"type": "Point", "coordinates": [28.2205801804694, -4.400816848548061]}}, {"type": "Feature", "properties": {"norad_id": 36281, "name": "FENGYUN 1C DEB", "group": "fengyun-1c-debris", "lat": -59.96280013629281, "lon": -63.439259122915274, "alt_km": 1206.6166564569412, "timestamp": "2025-12-24T20:42:21.315174+00:00", "meta": {"OBJECT_NAME": "FENGYUN 1C DEB", "OBJECT_ID": "1999-025DXJ", "EPOCH": "2025-12-20T00:30:26.383680", "MEAN_MOTION": 13.60294135, "ECCENTRICITY": 0.02913999, "INCLINATION": 99.2595, "RA_OF_ASC_NODE": 275.5857, "ARG_OF_PERICENTER": 92.0584, "MEAN_ANOMALY": 271.3952, "EPHEMERIS_TYPE": 0, "CLASSIFICATION_TYPE": "U", "NORAD_CAT_ID": 36281, "ELEMENT_SET_NO": 999, "REV_AT_EPOCH": 84616, "BSTAR": 0.00281607, "MEAN_MOTION_DOT": 2.757e-05, "MEAN_MOTION_DDOT": 0}, "tle": {"line1": "1 36281U 99025DXJ 25354.02113870  .00002757  00000+0  28161-2 0  9996", "line2": "2 36281  99.2595 275.5857 0291399  92.0584 271.3952 13.60294135846169"}}, "geometry": {"type": "Point", "coordinates": [-63.439259122915274, -59.96280013629281]}}, {"type": "Feature", "properties": {"norad_id": 36283, "name": "FENGYUN 1C DEB", "group": "fengyun-1c-debris", "lat": 27.337353625836933, "lon": -38.28377468508356, "alt_km": 500.315253152241, "timestamp": "2025-12-24T20:42:21.315184+00:00", "meta": {"OBJECT_NAME": "FENGYUN 1C DEB", "OBJECT_ID": "1999-025DXL", "EPOCH": "2025-12-23T04:44:38.793408", "MEAN_MOTION": 15.06831153, "ECCENTRICITY": 0.00662704, "INCLINATION": 99.4219, "RA_OF_ASC_NODE": 324.6063, "ARG_OF_PERICENTER": 17.5216, "MEAN_ANOMALY": 342.827, "EPHEMERIS_TYPE": 0, "CLASSIFICATION_TYPE": "U", "NORAD_CAT_ID": 36283, "ELEMENT_SET_NO": 999, "REV_AT_EPOCH": 66823, "BSTAR": 0.0020918935, "MEAN_MOTION_DOT": 0.00032823, "MEAN_MOTION_DDOT": 0}, "tle": {"line1": "1 36283U 99025DXL 25357.19767122  .00032823  00000+0  20919-2 0  9994", "line2": "2 36283  99.4219 324.6063 0066270  17.5216 342.8270 15.06831153668239"}}, "geometry": {"type": "Point", "coordinates": [-38.28377468508356, 27.337353625836933]}}, {"type": "Feature", "properties": {"norad_id": 36644, "name": "FENGYUN 1C DEB", "group": "fengyun-1c-debris", "lat": 74.25232901103593, "lon": 104.08237833166848, "alt_km": 958.4212475316899, "timestamp": "2025-12-24T20:42:21.315193+00:00", "meta": {"OBJECT_NAME": "FENGYUN 1C DEB", "OBJECT_ID": "1999-025DXN", "EPOCH": "2025-12-20T03:15:14.582880", "MEAN_MOTION": 13.5921712, "ECCENTRICITY": 0.0285778, "INCLINATION": 98.4233, "RA_OF_ASC_NODE": 131.7114, "ARG_OF_PERICENTER": 160.4918, "MEAN_ANOMALY": 200.7431, "EPHEMERIS_TYPE": 0, "CLASSIFICATION_TYPE": "U", "NORAD_CAT_ID": 36644, "ELEMENT_SET_NO": 999, "REV_AT_EPOCH": 61668, "BSTAR": 0.0010197403, "MEAN_MOTION_DOT": 9.49e-06, "MEAN_MOTION_DDOT": 0}, "tle": {"line1": "1 36644U 99025DXN 25354.13558545  .00000949  00000+0  10197-2 0  9994", "line2": "2 36644  98.4233 131.7114 0285778 160.4918 200.7431 13.59217120616683"}}, "geometry": {"type": "Point", "coordinates": [104.08237833166848, 74.25232901103593]}}, {"type": "Feature", "properties": {"norad_id": 36647, "name": "FENGYUN 1C DEB", "group": "fengyun-1c-debris", "lat": 83.64589280644233, "lon": 60.940456939299125, "alt_km": 1100.1486990871135, "timestamp": "2025-12-24T20:42:21.315203+00:00", "meta": {"OBJECT_NAME": "FENGYUN 1C DEB", "OBJECT_ID": "1999-025DXR", "EPOCH": "2025-12-17T15:22:01.202880", "MEAN_MOTION": 13.88856712, "ECCENTRICITY": 0.02401846, "INCLINATION": 96.1202, "RA_OF_ASC_NODE": 130.6548, "ARG_OF_PERICENTER": 285.5466, "MEAN_ANOMALY": 71.9303, "EPHEMERIS_TYPE": 0, "CLASSIFICATION_TYPE": "U", "NORAD_CAT_ID": 36647, "ELEMENT_SET_NO": 999, "REV_AT_EPOCH": 30480, "BSTAR": 0.0022455743, "MEAN_MOTION_DOT": 3.394e-05, "MEAN_MOTION_DDOT": 0}, "tle": {"line1": "1 36647U 99025DXR 25351.64029170  .00003394  00000+0  22456-2 0  9995", "line2": "2 36647  96.1202 130.6548 0240184 285.5466  71.9303 13.88856712304807"}}, "geometry": {"type": "Point", "coordinates": [60.940456939299125, 83.64589280644233]}}, {"type": "Feature", "properties": {"norad_id": 36652, "name": "FENGYUN 1C DEB", "group": "fengyun-1c-debris", "lat": -54.74836593332163, "lon": 94.08484899867905, "alt_km": 786.8540227911017, "timestamp": "2025-12-24T20:42:21.315213+00:00", "meta": {"OBJECT_NAME": "FENGYUN 1C DEB", "OBJECT_ID": "1999-025DXW", "EPOCH": "2025-12-23T04:27:41.800608", "MEAN_MOTION": 14.22886702, "ECCENTRICITY": 0.00508764, "INCLINATION": 98.9404, "RA_OF_ASC_NODE": 79.5139, "ARG_OF_PERICENTER": 321.9876, "MEAN_ANOMALY": 37.7715, "EPHEMERIS_TYPE": 0, "CLASSIFICATION_TYPE": "U", "NORAD_CAT_ID": 36652, "ELEMENT_SET_NO": 999, "REV_AT_EPOCH": 64473, "BSTAR": 0.0016833482, "MEAN_MOTION_DOT": 3.789e-05, "MEAN_MOTION_DDOT": 0}, "tle": {"line1": "1 36652U 99025DXW 25357.18590047  .00003789  00000+0  16833-2 0  9992", "line2": "2 36652  98.9404  79.5139 0050876 321.9876  37.7715 14.22886702644738"}}, "geometry": {"type": "Point", "coordinates": [94.08484899867905, -54.74836593332163]}}, {"type": "Feature", "properties": {"norad_id": 36657, "name": "FENGYUN 1C DEB", "group": "fengyun-1c-debris", "lat": -8.338178553045635, "lon": -29.862888282133, "alt_km": 747.9483596706841, "timestamp": "2025-12-24T20:42:21.315223+00:00", "meta": {"OBJECT_NAME": "FENGYUN 1C DEB", "OBJECT_ID": "1999-025DYB", "EPOCH": "2025-12-24T03:28:09.537312", "MEAN_MOTION": 14.65595988, "ECCENTRICITY": 0.01054418, "INCLINATION": 99.4134, "RA_OF_ASC_NODE": 150.7085, "ARG_OF_PERICENTER": 32.5636, "MEAN_ANOMALY": 328.2009, "EPHEMERIS_TYPE": 0, "CLASSIFICATION_TYPE": "U", "NORAD_CAT_ID": 36657, "ELEMENT_SET_NO": 999, "REV_AT_EPOCH": 66423, "BSTAR": 0.00059448809, "MEAN_MOTION_DOT": 3.438e-05, "MEAN_MOTION_DDOT": 0}, "tle": {"line1": "1 36657U 99025DYB 25358.14455483  .00003438  00000+0  59449-3 0  9990", "line2": "2 36657  99.4134 150.7085 0105441  32.5636 328.2009 14.65595988664230"}}, "geometry": {"type": "Point", "coordinates": [-29.862888282133, -8.338178553045635]}}, {"type": "Feature", "properties": {"norad_id": 36659, "name": "FENGYUN 1C DEB", "group": "fengyun-1c-debris", "lat": 11.579858762284928, "lon": 0.9587137816169451, "alt_km": 853.6037861091154, "timestamp": "2025-12-24T20:42:21.315232+00:00", "meta": {"OBJECT_NAME": "FENGYUN 1C DEB", "OBJECT_ID": "1999-025DYD", "EPOCH": "2025-12-18T07:09:04.054176", "MEAN_MOTION": 13.87384482, "ECCENTRICITY": 0.01357919, "INCLINATION": 99.8541, "RA_OF_ASC_NODE": 356.081, "ARG_OF_PERICENTER": 60.2917, "MEAN_ANOMALY": 301.1674, "EPHEMERIS_TYPE": 0, "CLASSIFICATION_TYPE": "U", "NORAD_CAT_ID": 36659, "ELEMENT_SET_NO": 999, "REV_AT_EPOCH": 60502, "BSTAR": 0.00061832075, "MEAN_MOTION_DOT": 7.35e-06, "MEAN_MOTION_DDOT": 0}, "tle": {"line1": "1 36659U 99025DYD 25352.29796359  .00000735  00000+0  61832-3 0  9998", "line2": "2 36659  99.8541 356.0810 0135791  60.2917 301.1674 13.87384482605024"}}, "geometry": {"type": "Point", "coordinates": [0.9587137816169451, 11.579858762284928]}}]}